#aV2009  9 28  0  0   .00000000      96 DD+AD WGS84 FIT  NGA
## 1551  86400.00000000   900.00000000 55102  .0000000000000
+   32     1  2  3  4  5  6  7  8  9 10 11 12 13 14 15 16 17
+         18 19 20 21 22 23 24 25 26 27 28 29 30 31 32  0  0
+          0  0  0  0  0  0  0  0  0  0  0  0  0  0  0  0  0
+          0  0  0  0  0  0  0  0  0  0  0  0  0  0  0  0  0
+          0  0  0  0  0  0  0  0  0  0  0  0  0  0  0  0  0
++         0  0  0  0  0  0  0  0  0  0  0  0  0  0  0  0  0
++         0  0  0  0  0  0  0  0  0  0  0  0  0  0  0  0  0
++         0  0  0  0  0  0  0  0  0  0  0  0  0  0  0  0  0
++         0  0  0  0  0  0  0  0  0  0  0  0  0  0  0  0  0
++         0  0  0  0  0  0  0  0  0  0  0  0  0  0  0  0  0
%c cc cc ccc ccc cccc cccc cccc cccc ccccc ccccc ccccc ccccc
%c cc cc ccc ccc cccc cccc cccc cccc ccccc ccccc ccccc ccccc
%f  0.0000000  0.000000000  0.00000000000  0.000000000000000
%f  0.0000000  0.000000000  0.00000000000  0.000000000000000
%i    0    0    0    0      0      0      0      0         0
%i    0    0    0    0      0      0      0      0         0
/*      NGA, ST. LOUIS,MO.                                  
/*   EPHEMERIS COMPUTED FROM  3 DAYS OF DATA                
/* CCCCCCCCCCCCCCCCCCCCCCCCCCCCCCCCCCCCCCCCCCCCCCCCCCCCCCCCC
/* CCCCCCCCCCCCCCCCCCCCCCCCCCCCCCCCCCCCCCCCCCCCCCCCCCCCCCCCC
*  2009  9 28  9  0   .00000000                                                 
P  1  19585.608280 -17175.832736   4793.723439    -58.721653                    
V  1  -2001.619312   6542.374638  31059.654184      -.009787                    
P  2  13336.647810  22034.719590  -7410.348197    176.106579                    
V  2    302.489881   9663.524629  29144.040169       .032776                    
P  3 -21609.477125 -10796.551363 -11765.560205    453.208702                    
V  3  14581.166891  -1609.456499 -25698.976230       .051839                    
P  4   6736.467961  25394.860463   1996.922022   -285.964242                    
V  4  -4448.603733  -1435.077187  31391.443411      -.174665                    
P  5  13160.381868   7963.100919 -21666.466437    -78.838851                    
V  5 -18032.753474  20740.484695  -3263.532170       .100118                    
P  6 -18427.506338 -13203.925218 -13729.600608    245.923762                    
V  6  17986.901092     35.580749 -23770.240881       .054802                    
P  7  -9796.468872  14334.046490 -20074.033236     10.635035                    
V  7  -8998.053213 -23852.518125 -12798.431616      -.007107                    
P  8  -2024.429453  23367.277935 -11971.133521   -223.027006                    
V  8  -5742.381818 -14304.154641 -27542.468328      -.014468                    
P  9  16090.426311   4954.264970  19897.829426     80.002357                    
V  9   8231.363639  25410.263553 -12519.267113       .020469                    
P 10  11606.854069  10114.915245 -21802.805370    -24.567865                    
V 10 -18740.734888  19883.063594   -425.057246      -.008893                    
P 11 -18309.484748   -419.186208  19106.784389    -21.706690                    
V 11 -11362.395746 -22296.162077 -10877.697405      -.018700                    
P 12  20424.909103  -6533.647404  15643.182625   -212.351313                    
V 12 -11884.102777  15947.988740  22374.550066       .055828                    
P 13 -17423.453582   7777.066244 -18609.866348    305.136267                    
V 13 -22221.371777  -7021.275719  17975.095909       .004619                    
P 14    530.226621 -14903.517507  22120.349551    -44.907988                    
V 14  26881.344301   6595.206703   3695.347179       .050822                    
P 15  25233.902326   7532.959905  -3724.476841   -319.326485                    
V 15  -5214.770299   1928.029015 -31126.108015      -.007892                    
P 16  -6140.182789 -14699.806517 -21163.415613      8.151815                    
V 16  18999.884857 -19201.903457   8045.977632      -.039590                    
P 17   -386.869935  15470.646592  21673.970308     88.568481                    
V 17 -26699.963127  -5854.144118   3519.309677       .031326                    
P 18  17040.564515 -20037.473044   1839.493187     16.122590                    
V 18   4171.032000   1082.852405 -31423.554654       .028666                    
P 19 -25366.618083  -8254.744991  -1315.694414      8.805633                    
V 19   2386.244459  -2100.111239 -31452.604805      -.017244                    
P 20 -20826.438798   9942.038791  12986.121464     71.238526                    
V 20   8654.802451 -14621.564163  24886.462269      -.008971                    
P 21   8091.641636 -17662.028990 -17548.082554    -11.844849                    
V 21   9271.630600  21379.966842 -17593.697205      -.022911                    
P 22   8369.757142 -21987.058989  12416.983266    189.946181                    
V 22  12853.598291  -9283.246798 -25524.620899      -.009755                    
P 23 -25614.444616   -152.373665  -7634.432625    388.120729                    
V 23  -8899.237577  -4085.925020  29775.070179      -.004257                    
P 24  14790.532565  -4238.562212 -21528.633713    224.209333                    
V 24   7237.793670  26700.249421    -33.007094       .031202                    
P 25 -13013.186686   7211.243055 -21669.967340    611.337558                    
V 25 -11384.524507 -25901.736451  -1572.250601       .142777                    
P 26  10235.902125 -11548.145812  21163.831253     61.534003                    
V 26  26911.683716   7618.801461  -8177.463582      -.010275                    
P 27  17221.993319   8983.218931  18816.146283     86.551641                    
V 27   7233.342863  21268.507604 -17389.561599       .032842                    
P 28 -10430.613109  21882.459188  10913.553929    -26.081441                    
V 28 -10901.896313   7991.416524 -27865.209256       .000698                    
P 29  19766.023490  -6963.393788 -16196.424159     61.398729                    
V 29  19756.206612   6673.338293  21159.324879       .032935                    
P 30  19483.723166 -16685.061209   6368.167682    180.528404                    
V 30  -3084.789570   8600.831198  30213.712703       .030495                    
P 31  -7944.761942 -25261.087393    572.828351    -63.764119                    
V 31   2531.278549   -331.196500  32135.577242       .005119                    
P 32 -19465.183991    824.831224  18308.012277    188.209706                    
V 32  15319.312520 -16655.781401  17685.471954      -.072156                    
EOF
